OBJECT B                
1 51825U 22019B   25274.97154722  .00053170  00000+0  10887-2 0  9993
2 51825  97.3760 353.0716 0008293   2.3216 357.8070 15.45890063199534
